{
  "type": "FeatureCollection",
  "features": [
    {
      "type": "Feature",
      "properties": {
        "norad_id": 38474,
        "name": "IRIDIUM 33 DEB",
        "group": "iridium-33-debris",
        "lat": 67.41008859560422,
        "lon": 178.01187760880657,
        "alt_km": 703.3579927518931,
        "timestamp": "2025-12-20T03:42:47.779783+00:00",
        "meta_object_name": "IRIDIUM 33 DEB",
        "meta_object_id": "1997-051AAB",
        "meta_epoch": "2025-12-19T07:20:05.894592",
        "meta_mean_motion": 14.50712379,
        "meta_eccentricity": 0.0027817,
        "meta_inclination": 86.3489,
        "meta_ra_of_asc_node": 7.2093,
        "meta_arg_of_pericenter": 68.0282,
        "meta_mean_anomaly": 292.3875,
        "meta_ephemeris_type": 0,
        "meta_classification_type": "U",
        "meta_norad_cat_id": 38474,
        "meta_element_set_no": 999,
        "meta_rev_at_epoch": 65413,
        "meta_bstar": 0.00035872,
        "meta_mean_motion_dot": 1.437e-05,
        "meta_mean_motion_ddot": 0,
        "tle_line1": "1 38474U 97051AAB 25353.30562378  .00001437  00000+0  35872-3 0  9992",
        "tle_line2": "2 38474  86.3489   7.2093 0027817  68.0282 292.3875 14.50712379654132"
      },
      "geometry": {
        "type": "Point",
        "coordinates": [
          178.01187760880657,
          67.41008859560422
        ]
      }
    },
    {
      "type": "Feature",
      "properties": {
        "norad_id": 39777,
        "name": "IRIDIUM 33 DEB",
        "group": "iridium-33-debris",
        "lat": -46.06334056876886,
        "lon": 167.24071043118528,
        "alt_km": 748.7525758613883,
        "timestamp": "2025-12-20T03:42:47.779793+00:00",
        "meta_object_name": "IRIDIUM 33 DEB",
        "meta_object_id": "1997-051AAJ",
        "meta_epoch": "2025-12-17T11:37:29.440128",
        "meta_mean_motion": 14.56536598,
        "meta_eccentricity": 0.00601884,
        "meta_inclination": 85.9622,
        "meta_ra_of_asc_node": 172.7412,
        "meta_arg_of_pericenter": 170.5587,
        "meta_mean_anomaly": 189.6768,
        "meta_ephemeris_type": 0,
        "meta_classification_type": "U",
        "meta_norad_cat_id": 39777,
        "meta_element_set_no": 999,
        "meta_rev_at_epoch": 60254,
        "meta_bstar": 0.0020288102,
        "meta_mean_motion_dot": 9.279e-05,
        "meta_mean_motion_ddot": 0,
        "tle_line1": "1 39777U 97051AAJ 25351.48436852  .00009279  00000+0  20288-2 0  9999",
        "tle_line2": "2 39777  85.9622 172.7412 0060188 170.5587 189.6768 14.56536598602541"
      },
      "geometry": {
        "type": "Point",
        "coordinates": [
          167.24071043118528,
          -46.06334056876886
        ]
      }
    },
    {
      "type": "Feature",
      "properties": {
        "norad_id": 39778,
        "name": "IRIDIUM 33 DEB",
        "group": "iridium-33-debris",
        "lat": 86.27862140210517,
        "lon": 116.90595832688065,
        "alt_km": 702.3625943140369,
        "timestamp": "2025-12-20T03:42:47.779804+00:00",
        "meta_object_name": "IRIDIUM 33 DEB",
        "meta_object_id": "1997-051AAK",
        "meta_epoch": "2025-12-18T10:01:19.260192",
        "meta_mean_motion": 14.5430124,
        "meta_eccentricity": 0.00073585,
        "meta_inclination": 86.3776,
        "meta_ra_of_asc_node": 40.7612,
        "meta_arg_of_pericenter": 24.7507,
        "meta_mean_anomaly": 335.4052,
        "meta_ephemeris_type": 0,
        "meta_classification_type": "U",
        "meta_norad_cat_id": 39778,
        "meta_element_set_no": 999,
        "meta_rev_at_epoch": 60775,
        "meta_bstar": 0.00067163185,
        "meta_mean_motion_dot": 2.869e-05,
        "meta_mean_motion_ddot": 0,
        "tle_line1": "1 39778U 97051AAK 25352.41758403  .00002869  00000+0  67163-3 0  9995",
        "tle_line2": "2 39778  86.3776  40.7612 0007358  24.7507 335.4052 14.54301240607752"
      },
      "geometry": {
        "type": "Point",
        "coordinates": [
          116.90595832688065,
          86.27862140210517
        ]
      }
    },
    {
      "type": "Feature",
      "properties": {
        "norad_id": 39781,
        "name": "IRIDIUM 33 DEB",
        "group": "iridium-33-debris",
        "lat": 31.35497570892906,
        "lon": -102.86027429116584,
        "alt_km": 919.6164697607637,
        "timestamp": "2025-12-20T03:42:47.779814+00:00",
        "meta_object_name": "IRIDIUM 33 DEB",
        "meta_object_id": "1997-051AAN",
        "meta_epoch": "2025-12-15T00:15:44.903232",
        "meta_mean_motion": 14.2070789,
        "meta_eccentricity": 0.01756389,
        "meta_inclination": 86.371,
        "meta_ra_of_asc_node": 257.043,
        "meta_arg_of_pericenter": 266.0338,
        "meta_mean_anomaly": 111.7662,
        "meta_ephemeris_type": 0,
        "meta_classification_type": "U",
        "meta_norad_cat_id": 39781,
        "meta_element_set_no": 999,
        "meta_rev_at_epoch": 8139,
        "meta_bstar": 0.0031777078,
        "meta_mean_motion_dot": 8.021e-05,
        "meta_mean_motion_ddot": 0,
        "tle_line1": "1 39781U 97051AAN 25349.01093638  .00008021  00000+0  31777-2 0  9990",
        "tle_line2": "2 39781  86.3710 257.0430 0175638 266.0338 111.7662 14.20707890 81397"
      },
      "geometry": {
        "type": "Point",
        "coordinates": [
          -102.86027429116584,
          31.35497570892906
        ]
      }
    },
    {
      "type": "Feature",
      "properties": {
        "norad_id": 40996,
        "name": "IRIDIUM 33 DEB",
        "group": "iridium-33-debris",
        "lat": 58.53496642006105,
        "lon": 3.9307854026306663,
        "alt_km": 563.9955235150155,
        "timestamp": "2025-12-20T03:42:47.779824+00:00",
        "meta_object_name": "IRIDIUM 33 DEB",
        "meta_object_id": "1997-051ABJ",
        "meta_epoch": "2025-12-19T00:18:17.890848",
        "meta_mean_motion": 14.96620971,
        "meta_eccentricity": 0.00114718,
        "meta_inclination": 86.3508,
        "meta_ra_of_asc_node": 358.4785,
        "meta_arg_of_pericenter": 46.0605,
        "meta_mean_anomaly": 343.7105,
        "meta_ephemeris_type": 0,
        "meta_classification_type": "U",
        "meta_norad_cat_id": 40996,
        "meta_element_set_no": 999,
        "meta_rev_at_epoch": 62582,
        "meta_bstar": 0.0021050571,
        "meta_mean_motion_dot": 0.00024091,
        "meta_mean_motion_ddot": 0,
        "tle_line1": "1 40996U 97051ABJ 25353.01270707  .00024091  00000+0  21051-2 0  9998",
        "tle_line2": "2 40996  86.3508 358.4785 0011471  46.0605 343.7105 14.96620971625826"
      },
      "geometry": {
        "type": "Point",
        "coordinates": [
          3.9307854026306663,
          58.53496642006105
        ]
      }
    },
    {
      "type": "Feature",
      "properties": {
        "norad_id": 40998,
        "name": "IRIDIUM 33 DEB",
        "group": "iridium-33-debris",
        "lat": -44.08874744958641,
        "lon": -125.99816664835521,
        "alt_km": 754.6520933023203,
        "timestamp": "2025-12-20T03:42:47.779835+00:00",
        "meta_object_name": "IRIDIUM 33 DEB",
        "meta_object_id": "1997-051ABL",
        "meta_epoch": "2025-12-17T22:19:42.919968",
        "meta_mean_motion": 14.45114717,
        "meta_eccentricity": 0.00092833,
        "meta_inclination": 86.383,
        "meta_ra_of_asc_node": 51.4388,
        "meta_arg_of_pericenter": 70.6878,
        "meta_mean_anomaly": 108.7,
        "meta_ephemeris_type": 0,
        "meta_classification_type": "U",
        "meta_norad_cat_id": 40998,
        "meta_element_set_no": 999,
        "meta_rev_at_epoch": 6756,
        "meta_bstar": 0.00036218128,
        "meta_mean_motion_dot": 1.286e-05,
        "meta_mean_motion_ddot": 0,
        "tle_line1": "1 40998U 97051ABL 25351.93035787  .00001286  00000+0  36218-3 0  9999",
        "tle_line2": "2 40998  86.3830  51.4388 0009283  70.6878 108.7000 14.45114717 67562"
      },
      "geometry": {
        "type": "Point",
        "coordinates": [
          -125.99816664835521,
          -44.08874744958641
        ]
      }
    },
    {
      "type": "Feature",
      "properties": {
        "norad_id": 46435,
        "name": "IRIDIUM 33 DEB",
        "group": "iridium-33-debris",
        "lat": 64.93762219840102,
        "lon": 2.770252793914731,
        "alt_km": 884.3557408155029,
        "timestamp": "2025-12-20T03:42:47.779845+00:00",
        "meta_object_name": "IRIDIUM 33 DEB",
        "meta_object_id": "1997-051ABN",
        "meta_epoch": "2025-12-13T20:22:29.882208",
        "meta_mean_motion": 14.32399442,
        "meta_eccentricity": 0.0208315,
        "meta_inclination": 86.2839,
        "meta_ra_of_asc_node": 193.4722,
        "meta_arg_of_pericenter": 272.7642,
        "meta_mean_anomaly": 103.0816,
        "meta_ephemeris_type": 0,
        "meta_classification_type": "U",
        "meta_norad_cat_id": 46435,
        "meta_element_set_no": 999,
        "meta_rev_at_epoch": 7932,
        "meta_bstar": 0.009141333,
        "meta_mean_motion_dot": 0.00031559,
        "meta_mean_motion_ddot": 0,
        "tle_line1": "1 46435U 97051ABN 25347.84895697  .00031559  00000+0  91413-2 0  9993",
        "tle_line2": "2 46435  86.2839 193.4722 0208315 272.7642 103.0816 14.32399442 79328"
      },
      "geometry": {
        "type": "Point",
        "coordinates": [
          2.770252793914731,
          64.93762219840102
        ]
      }
    }
  ]
}